ONEWEB-0066             
1 45424U 20020A   22078.41316088 -.00000546  00000+0 -15765-2 0  9995
2 45424  87.8906 329.4147 0002305  86.7014 273.4377 13.11416535 99422
ONEWEB-0067             
1 45425U 20020B   22078.43784948  .00000302  00000+0  81489-3 0  9997
2 45425  87.8905 329.4138 0001839  87.7587 272.3751 13.11419162 99488
ONEWEB-0080             
1 45426U 20020C   22078.46478382  .00000324  00000+0  87828-3 0  9990
2 45426  87.8906 329.3994 0001903  72.9518 287.1818 13.11415243 99452
ONEWEB-0090             
1 45427U 20020D   22078.40418297 -.00000273  00000+0 -80665-3 0  9991
2 45427  87.8912 329.4514 0001825  80.9955 279.1379 13.11415437 99410
ONEWEB-0061             
1 45428U 20020E   22078.58820229  .00000076  00000+0  17806-3 0  9999
2 45428  87.8908 329.3611 0001897  89.7494 270.3851 13.11419252 99391
ONEWEB-0081             
1 45429U 20020F   22078.41764470 -.00000513  00000+0 -14834-2 0  9992
2 45429  87.8918 329.3910 0001818  93.5830 266.5506 13.11417421 99485
ONEWEB-0069             
1 45430U 20020G   22078.25383375 -.00000347  00000+0 -10160-2 0  9990
2 45430  87.8907 329.4562 0001935  84.1545 275.9804 13.11415729 99392
ONEWEB-0031             
1 45431U 20020H   22078.45580935  .00000504  00000+0  13859-2 0  9995
2 45431  87.8903 329.4029 0001664  79.2460 280.8855 13.11415697 99404
ONEWEB-0027             
1 45432U 20020J   22078.54818458  .00000051  00000+0  97595-4 0  9998
2 45432  87.9090 314.1999 0001878  78.0300 282.1042 13.17646353102158
ONEWEB-0064             
1 45433U 20020K   22078.45356765  .00000523  00000+0  14391-2 0  9992
2 45433  87.8908 329.4243 0002131  70.8788 289.2571 13.11416939 99430
ONEWEB-0018             
1 45434U 20020L   22078.40867052 -.00000512  00000+0 -14812-2 0  9992
2 45434  87.8905 329.4060 0001887  87.1155 273.0189 13.11415237 99370
ONEWEB-0083             
1 45435U 20020M   22078.39745581  .00000019  00000+0  17045-4 0  9996
2 45435  87.8906 329.4166 0001635  82.0225 278.1089 13.11415106 99417
ONEWEB-0095             
1 45436U 20020N   22078.45872573  .00000499  00000+0  13761-2 0  9997
2 45436  87.8905 329.4040 0001923  74.8100 285.3240 13.11171109 99421
ONEWEB-0092             
1 45437U 20020P   22078.73855282 -.00000020  00000+0 -93306-4 0  9994
2 45437  87.8919 329.3216 0001304  87.9288 272.1989 13.11414462 99578
ONEWEB-0085             
1 45438U 20020Q   22078.39073070  .00000242  00000+0  64645-3 0  9991
2 45438  87.8907 329.4363 0001999  85.7265 274.4091 13.11413996 99414
ONEWEB-0096             
1 45439U 20020R   22078.24710487 -.00000199  00000+0 -59620-3 0  9996
2 45439  87.8905 329.4487 0001871  91.1906 268.9436 13.11415478 99386
ONEWEB-0037             
1 45440U 20020S   22078.76548096  .00000490  00000+0  13466-2 0  9999
2 45440  87.8903 329.3507 0001497  83.4294 276.7004 13.11416673 99494
ONEWEB-0042             
1 45441U 20020T   22078.44233987  .00000393  00000+0  10731-2 0  9999
2 45441  87.8907 329.4124 0001522  87.5279 272.6023 13.11419104 99412
ONEWEB-0098             
1 45442U 20020U   22078.38624242  .00000340  00000+0  92490-3 0  9996
2 45442  87.8903 329.4212 0002044  85.6158 274.5204 13.11415306 99380
ONEWEB-0055             
1 45443U 20020V   22078.44683291  .00000489  00000+0  13449-2 0  9993
2 45443  87.8916 329.3841 0001954  83.0066 277.1284 13.11417562 99362
ONEWEB-0093             
1 45444U 20020W   22078.80361822 -.00000523  00000+0 -15120-2 0  9996
2 45444  87.8907 329.3446 0001970  84.5060 275.6292 13.11417544 99487
ONEWEB-0029             
1 45445U 20020X   22078.44458523  .00000508  00000+0  13973-2 0  9997
2 45445  87.8909 329.3997 0001723  94.2879 265.8446 13.11419142 99403
ONEWEB-0068             
1 45446U 20020Y   22078.41428138 -.00000473  00000+0 -13708-2 0  9993
2 45446  87.8906 329.4195 0002106  87.1679 272.9690 13.11417165 99343
ONEWEB-0046             
1 45447U 20020Z   22078.41091268 -.00000438  00000+0 -12728-2 0  9996
2 45447  87.8907 329.4283 0001583  82.1124 278.0183 13.11415934 99358
ONEWEB-0063             
1 45448U 20020AA  22078.74528235  .00000213  00000+0  56471-3 0  9995
2 45448  87.8903 329.3529 0001408  78.4004 281.7282 13.11418752 99484
ONEWEB-0019             
1 45449U 20020AB  22078.26280719 -.00000515  00000+0 -14903-2 0  9995
2 45449  87.8910 329.4388 0001717  75.0699 285.0618 13.11417432 99263
ONEWEB-0094             
1 45450U 20020AC  22078.54974471  .00000009  00000+0 -11286-4 0  9993
2 45450  87.9069 314.1022 0001886  79.5264 280.6080 13.17652846102109
ONEWEB-0087             
1 45451U 20020AD  22078.44909753  .00000583  00000+0  16098-2 0  9994
2 45451  87.8915 329.4363 0001822  95.2816 264.8520 13.11417833 99336
ONEWEB-0082             
1 45452U 20020AE  22078.45132041  .00000638  00000+0  17628-2 0  9995
2 45452  87.8906 329.3769 0002166  91.0928 269.0448 13.11417611 99426
ONEWEB-0050             
1 45453U 20020AF  22078.58075616  .00001021  00000+0  90385-4 0  9994
2 45453  87.5347 269.1562 0026132 172.7946 187.3665 14.94938072108842
ONEWEB-0034             
1 45454U 20020AG  22078.39296880  .00000145  00000+0  37336-3 0  9994
2 45454  87.8903 329.4108 0001734  88.7649 271.3677 13.11415151 99333
ONEWEB-0060             
1 45455U 20020AH  22078.40193991 -.00000261  00000+0 -77140-3 0  9994
2 45455  87.8907 329.4150 0001655  83.5107 276.6209 13.11415525 99298
ONEWEB-0086             
1 45456U 20020AJ  22078.41988757 -.00000512  00000+0 -14818-2 0  9999
2 45456  87.8906 329.4049 0001897  87.5652 272.5693 13.11418236 99353
ONEWEB-0088             
1 45457U 20020AK  22078.39522639  .00000049  00000+0  10348-3 0  9998
2 45457  87.8900 329.4271 0001605  88.7877 271.3435 13.11415823 99286
YAOGAN-30 R             
1 45460U 20021A   22078.76359145  .00001420  00000+0  14635-3 0  9991
2 45460  34.9962 198.7218 0005231 243.7261 116.2907 14.90238902108289
YAOGAN-30 S             
1 45461U 20021B   22078.80798319  .00001410  00000+0  14536-3 0  9996
2 45461  34.9963 198.1097 0002162 129.2395 230.8498 14.90243348108262
YAOGAN-30 T             
1 45462U 20021C   22078.71813830  .00001371  00000+0  14141-3 0  9991
2 45462  34.9970 196.5350 0002717 313.2074  46.8410 14.90237138108270
AEHF-6 (USA 298)        
1 45465U 20022B   22078.54784962 -.00000305  00000+0  00000+0 0  9991
2 45465   6.1572 303.5796 0050207   1.7867 206.5755  1.00276467  7463
NOOR-1                  
1 45529U 20024A   22078.80970291  .00242205  00000+0  10834-2 0  9990
2 45529  59.7955 240.9936 0000517 289.0419 178.7907 15.83176320108224
STARLINK-1329           
1 45531U 20025A   22078.48430399  .00014739  00000+0  10059-2 0  9996
2 45531  53.0559 141.3348 0001318  65.5610 294.5516 15.06415059105764
STARLINK-1338           
1 45532U 20025B   22078.49538102  .00003945  00000+0  28362-3 0  9993
2 45532  53.0542 141.2842 0000990  89.8814 270.2288 15.06395535106365
STARLINK-1339           
1 45533U 20025C   22078.49418860  .00026215  00000+0  70525-3 0  9995
2 45533  53.0468 119.9996 0005176  36.1321 324.0030 15.37712353106069
STARLINK-1341           
1 45534U 20025D   22078.50643003  .00002458  00000+0  18382-3 0  9993
2 45534  53.0525 141.2322 0001638  60.8038 299.3115 15.06413613106367
STARLINK-1350           
1 45535U 20025E   22078.45848064 -.00004236  00000+0 -26588-3 0  9997
2 45535  53.0525 141.4530 0001603  64.1942 295.9213 15.06366015105772
STARLINK-1352           
1 45536U 20025F   22078.59486880  .00008060  00000+0  55949-3 0  9997
2 45536  53.0528 140.8356 0001647  60.5454 299.5700 15.06393581105792
STARLINK-1353           
1 45537U 20025G   22078.78826552  .00015618  00000+0  75266-3 0  9994
2 45537  52.9973 104.3026 0002852  74.7234 285.4074 15.18905842106304
STARLINK-1362           
1 45538U 20025H   22078.55434718  .00000824  00000+0  74224-4 0  9996
2 45538  53.0532 141.0190 0001699  62.6426 297.4736 15.06406453106371
STARLINK-1367           
1 45539U 20025J   22078.22835023  .00001052  00000+0  10495-4 0  9999
2 45539  53.0486 345.9372 0008668 284.0148  75.9908 15.76721475108497
STARLINK-1368           
1 45540U 20025K   22078.53224244  .00008349  00000+0  57866-3 0  9990
2 45540  53.0541 141.1107 0001443  55.8655 304.2471 15.06404723106368
STARLINK-1369           
1 45541U 20025L   22078.46956857  .00000179  00000+0  30932-4 0  9994
2 45541  53.0534 141.3914 0001646  59.8561 300.2591 15.06409092105771
STARLINK-1371           
1 45542U 20025M   22078.56908424 -.00000665  00000+0 -25742-4 0  9998
2 45542  53.0526 140.9561 0001412  56.0485 304.0638 15.06394045106373
STARLINK-1372           
1 45543U 20025N   22078.47324778 -.00001852  00000+0 -10549-3 0  9990
2 45543  53.0542 141.3812 0001628  55.0900 305.0242 15.06400475105776
STARLINK-1373           
1 45544U 20025P   22078.55802758  .00002938  00000+0  21601-3 0  9994
2 45544  53.0525 141.0085 0001380  74.8604 285.2537 15.06409303106374
STARLINK-1374           
1 45545U 20025Q   22078.84185196  .00002853  00000+0  21030-3 0  9999
2 45545  53.0521 139.7244 0001672  54.3206 305.7939 15.06414217105831
STARLINK-1375           
1 45546U 20025R   22078.52118037  .00008384  00000+0  58070-3 0  9994
2 45546  53.0542 141.1589 0001409  68.0874 292.0264 15.06423029106364
STARLINK-1377           
1 45547U 20025S   22078.51747864 -.00000983  00000+0 -47083-4 0  9992
2 45547  53.0560 141.1734 0001573  81.5143 278.6025 15.06389610106371
STARLINK-1378           
1 45548U 20025T   22078.54329817  .00006494  00000+0  45429-3 0  9992
2 45548  53.0533 141.0760 0001494  57.8122 302.3011 15.06414973106365
STARLINK-1390           
1 45550U 20025V   22078.56077048  .00000579  00000+0  57766-4 0  9999
2 45550  53.0531 141.0006 0001539  70.3493 289.7662 15.06407997106368
STARLINK-1294           
1 45551U 20025W   22078.62992589  .00006324  00000+0  44295-3 0  9999
2 45551  53.0514 120.6759 0001399  63.3009 296.8123 15.06408234106059
